GSAT-6                  
1 40880U 15041A   26074.15532424 -.00000161  00000+0  00000+0 0  9993
2 40880   1.6761  83.8039 0002903 276.8187 310.5837  1.00273237 38651
INMARSAT 5-F3           
1 40882U 15042A   26072.81962163  .00000049  00000+0  00000+0 0  9998
2 40882   0.0192 146.1501 0001255 271.0162 228.9045  1.00268591 38616
TJS-1                   
1 40892U 15046A   26072.38692446 -.00000157  00000+0  00000+0 0  9990
2 40892   0.0752  84.2509 0004761 305.1138  75.9419  1.00270429 38614
EXPRESS-AM8             
1 40895U 15048A   26074.27882476 -.00000112  00000+0  00000+0 0  9990
2 40895   0.0127 226.9322 0000092 236.6654 155.6564  1.00272403 38403
COSMOS 1700 DEB         
1 40924U 85102G   26073.72376315  .00000017  00000+0  00000+0 0  9993
2 40924   9.8490 319.3715 0022053 119.3000  57.9353  1.00217961 66489
SKY MUSTER 1 (NBN1A)    
1 40940U 15054A   26071.52827675 -.00000278  00000+0  00000+0 0  9996
2 40940   0.0180 195.7183 0001703 164.3283 140.5396  1.00271242 38299
ARSAT 2                 
1 40941U 15054B   26072.48279123  .00000000  00000+0  00000+0 0  9994
2 40941   0.0132 154.1496 0001848 198.7637 271.0022  1.00267894 38347
MORELOS 3               
1 40946U 15056A   26074.25923800 -.00000041  00000+0  00000+0 0  9992
2 40946   3.1167  12.4217 0003242 359.4354 141.2034  1.00271971 38345
APSTAR-9                
1 40982U 15059A   26072.32490329 -.00000267  00000+0  00000+0 0  9996
2 40982   0.0403   7.9304 0001259 247.6726 174.2589  1.00268527 38150
TURKSAT 4B              
1 40984U 15060A   26074.22023784  .00000000  00000+0  00000+0 0  9992
2 40984   0.0246 163.4277 0002120 206.2077 292.4808  1.00268658 38154
ZHONGXING-2C            
1 41021U 15063A   26074.30213819 -.00000324  00000+0  00000+0 0  9997
2 41021   0.0320 132.0392 0006414  88.7079 164.3519  1.00269031 38034
GSAT-15                 
1 41028U 15065A   26074.08616394 -.00000259  00000+0  00000+0 0  9993
2 41028   0.0651 269.1503 0001568 126.8549 261.2054  1.00271405 37853
BADR-7 (ARABSAT-6B)     
1 41029U 15065B   26074.28679812  .00000144  00000+0  00000+0 0  9992
2 41029   0.0319 217.9060 0003011  37.5837  46.6301  1.00270795 37825
LAOSAT 1                
1 41034U 15067A   26073.83136889 -.00000344  00000+0  00000+0 0  9995
2 41034   0.0266  58.3406 0001476 266.7453 275.1066  1.00268152 37917
TELSTAR 12V             
1 41036U 15068A   26074.20732444 -.00000120  00000+0  00000+0 0  9991
2 41036   0.0154 133.0816 0002557 227.6272 231.7404  1.00271683 37688
ELEKTRO-L 2             
1 41105U 15074A   26074.27873809 -.00000114  00000+0  00000+0 0  9996
2 41105   6.4571  71.6721 0002807 249.8242 297.2200  1.00273414 37563
COSMOS 2513             
1 41121U 15075A   26073.89226527 -.00000139  00000+0  00000+0 0  9998
2 41121   0.0439 108.2335 0002265 260.3394 205.3790  1.00272874 37604
